[{"OBJECT_NAME":"STARLINK-2633","OBJECT_ID":"2021-040H","EPOCH":"2026-03-09T17:56:48.276672","MEAN_MOTION":15.29371056,"ECCENTRICITY":0.00012426,"INCLINATION":53.1552,"RA_OF_ASC_NODE":164.8493,"ARG_OF_PERICENTER":92.3494,"MEAN_ANOMALY":267.7648,"EPHEMERIS_TYPE":0,"CLASSIFICATION_TYPE":"U","NORAD_CAT_ID":48435,"ELEMENT_SET_NO":999,"REV_AT_EPOCH":26686,"BSTAR":0.00052180168,"MEAN_MOTION_DOT":0.00014738,"MEAN_MOTION_DDOT":0},{"OBJECT_NAME":"USA 61","OBJECT_ID":"1990-050C","EPOCH":"2026-03-09T12:11:25.917504","MEAN_MOTION":13.6196417,"ECCENTRICITY":0.0883009,"INCLINATION":63.2938,"RA_OF_ASC_NODE":120.5629,"ARG_OF_PERICENTER":83.2372,"MEAN_ANOMALY":286.8223,"EPHEMERIS_TYPE":0,"CLASSIFICATION_TYPE":"U","NORAD_CAT_ID":20691,"ELEMENT_SET_NO":999,"REV_AT_EPOCH":9272,"BSTAR":0.00024937203,"MEAN_MOTION_DOT":3.372e-5,"MEAN_MOTION_DDOT":0}]
